NORAD_CAT_ID,OBJECT_NAME,OBJECT_TYPE,EPOCH,MEAN_MOTION,ECCENTRICITY,INCLINATION,RA_OF_ASC_NODE,ARG_OF_PERICENTER,MEAN_ANOMALY,BSTAR,MEAN_MOTION_DOT,MEAN_MOTION_DDOT,TLE_LINE0,TLE_LINE1,TLE_LINE2,SEMIMAJOR_AXIS,PERIOD,APOGEE,PERIGEE,DECAYED
55936.0,STARLINK-5882,PAYLOAD,2023-04-18 09:17:57,15.69936562,0.0003609,70.002,92.1501,269.7604,90.3178,4.241e-05,4.892e-05,0.0,0 STARLINK-5882,1 55936U 23037Y   23108.38746542  .00004892  00000-0  42410-4 0  9994,2 55936  70.0020  92.1501 0003609 269.7604  90.3178 15.69936562  5150,6737.215,91.723,361.512,356.649,0.0
55936.0,STARLINK-5882,PAYLOAD,2023-04-19 08:14:13,15.69934892,0.0003562,69.9998,89.4626,262.9123,97.1667,3.482e-05,3.978e-05,0.0,0 STARLINK-5882,1 55936U 23037Y   23109.34321470  .00003978  00000-0  34820-4 0  9990,2 55936  69.9998  89.4626 0003562 262.9123  97.1667 15.69934892  5643,6737.22,91.724,361.485,356.685,0.0
55936.0,STARLINK-5882,PAYLOAD,2023-04-20 01:03:30,15.69923164,0.0003321,70.0019,87.4913,264.3088,95.7729,8.0671e-06,7.57e-06,0.0,0 STARLINK-5882,1 55936U 23037Y   23110.04410526  .00000757  00000-0  80671-5 0  9998,2 55936  70.0019  87.4913 0003321 264.3088  95.7729 15.69923164  5751,6737.254,91.724,361.356,356.881,0.0
55936.0,STARLINK-5882,PAYLOAD,2023-04-20 08:42:17,15.69891815,0.0003034,70.0025,86.5965,279.8434,80.2419,-8.2433e-05,-0.00010098,0.0,0 STARLINK-5882,1 55936U 23037Y   23110.36269723 -.00010098  00000-0 -82433-4 0  9992,2 55936  70.0025  86.5965 0003034 279.8434  80.2419 15.69891815  5462,6737.344,91.726,361.253,357.164,0.0
55936.0,STARLINK-5882,PAYLOAD,2023-04-21 04:35:02,15.69928837,0.0003453,70.0007,84.2675,270.1751,89.9049,2.7621e-05,3.11e-05,0.0,0 STARLINK-5882,1 55936U 23037Y   23111.19100567  .00003110  00000-0  27621-4 0  9997,2 55936  70.0007  84.2675 0003453 270.1751  89.9049 15.69928837  5938,6737.238,91.724,361.429,356.776,0.0
55936.0,STARLINK-5882,PAYLOAD,2023-04-21 06:06:47,15.69931575,0.0003525,70.0004,84.0881,269.4943,90.5848,3.6425e-05,4.171e-05,0.0,0 STARLINK-5882,1 55936U 23037Y   23111.25472139  .00004171  00000-0  36425-4 0  9991,2 55936  70.0004  84.0881 0003525 269.4943  90.5848 15.69931575  5608,6737.23,91.724,361.47,356.72,0.0
55936.0,STARLINK-5882,PAYLOAD,2023-04-21 21:24:19,15.6992773,0.0003544,70.0001,82.2962,267.7227,92.3563,1.9813e-05,2.171e-05,0.0,0 STARLINK-5882,1 55936U 23037Y   23111.89188971  .00002171  00000-0  19813-4 0  9999,2 55936  70.0001  82.2962 0003544 267.7227  92.3563 15.69927730  5705,6737.241,91.724,361.493,356.718,0.0
55936.0,STARLINK-5882,PAYLOAD,2023-04-21 22:56:04,15.69928566,0.0003578,70.0,82.117,268.0216,92.057,1.3013e-05,1.352e-05,0.0,0 STARLINK-5882,1 55936U 23037Y   23111.95560595  .00001352  00000-0  13013-4 0  9998,2 55936  70.0000  82.1170 0003578 268.0216  92.0570 15.69928566  6055,6737.238,91.724,361.514,356.693,0.0
55936.0,STARLINK-5882,PAYLOAD,2023-04-22 08:06:34,15.69930464,0.0003602,69.9998,81.0421,269.2913,90.787,1.996e-05,2.188e-05,0.0,0 STARLINK-5882,1 55936U 23037Y   23112.33790496  .00002188  00000-0  19960-4 0  9991,2 55936  69.9998  81.0421 0003602 269.2913  90.7870 15.69930464  5776,6737.233,91.724,361.525,356.671,0.0
55936.0,STARLINK-5882,PAYLOAD,2023-04-23 03:59:21,15.69929626,0.0003566,70.0,78.7157,265.9957,94.0831,1.0698e-05,1.074e-05,0.0,0 STARLINK-5882,1 55936U 23037Y   23113.16622122  .00001074  00000-0  10698-4 0  9995,2 55936  70.0000  78.7157 0003566 265.9957  94.0831 15.69929626  5909,6737.235,91.724,361.503,356.698,0.0
55936.0,STARLINK-5882,PAYLOAD,2023-04-23 20:48:38,15.69916206,0.0003826,69.9996,76.7438,259.8031,100.2733,3.3364e-05,3.8e-05,0.0,0 STARLINK-5882,1 55936U 23037Y   23113.86711188  .00003800  00000-0  33364-4 0  9997,2 55936  69.9996  76.7438 0003826 259.8031 100.2733 15.69916206  6018,6737.274,91.725,361.716,356.561,0.0
55936.0,STARLINK-5882,PAYLOAD,2023-04-23 23:52:08,15.69926662,0.0003412,70.0005,76.3856,260.9855,99.0955,1.3662e-05,1.43e-05,0.0,0 STARLINK-5882,1 55936U 23037Y   23113.99454144  .00001430  00000-0  13662-4 0  9993,2 55936  70.0005  76.3856 0003412 260.9855  99.0955 15.69926662  6377,6737.244,91.724,361.408,356.81,0.0
55936.0,STARLINK-5882,PAYLOAD,2023-04-25 03:23:41,15.69884288,0.0002886,70.0018,73.1612,256.6117,103.4757,-0.00010367,-0.00012637,0.0,0 STARLINK-5882,1 55936U 23037Y   23115.14145114 -.00012637  00000-0 -10367-3 0  9997,2 55936  70.0018  73.1612 0002886 256.6117 103.4757 15.69884288  6550,6737.365,91.727,361.174,357.286,0.0
55936.0,STARLINK-5882,PAYLOAD,2023-04-25 06:27:11,15.69884352,0.0003153,70.0023,72.8024,276.3524,83.7313,-0.00011596,-0.00014109,0.0,0 STARLINK-5882,1 55936U 23037Y   23115.26888553 -.00014109  00000-0 -11596-3 0  9992,2 55936  70.0023  72.8024 0003153 276.3524  83.7313 15.69884352  6233,6737.365,91.727,361.354,357.106,0.0
55936.0,STARLINK-5882,PAYLOAD,2023-04-26 06:55:14,15.69914274,0.0002529,70.0035,69.9393,272.7361,87.3546,0.00011484,0.00013611,0.0,0 STARLINK-5882,1 55936U 23037Y   23116.28836622  .00013611  00000-0  11484-3 0  9996,2 55936  70.0035  69.9393 0002529 272.7361  87.3546 15.69914274  6399,6737.279,91.725,360.848,357.44,0.0
55936.0,STARLINK-5882,PAYLOAD,2023-04-26 14:33:59,15.69972806,0.0005001,70.0031,69.0411,288.9719,71.0934,0.00027542,0.00033114,0.0,0 STARLINK-5882,1 55936U 23037Y   23116.60693660  .00033114  00000-0  27542-3 0  9997,2 55936  70.0031  69.0411 0005001 288.9719  71.0934 15.69972806  6443,6737.112,91.721,362.346,355.608,0.0
55936.0,STARLINK-5882,PAYLOAD,2023-04-27 07:22:49,15.71249688,0.0018133,70.0035,67.0713,236.7873,123.1585,0.0050473,0.00701651,0.0,0 STARLINK-5882,1 55936U 23037Y   23117.30752002  .00701651  00000-0  50473-2 0  9997,2 55936  70.0035  67.0713 0018133 236.7873 123.1585 15.71249688  6553,6733.461,91.647,367.536,343.117,0.0
55936.0,STARLINK-5882,PAYLOAD,2023-04-28 00:00:00,15.69963819,0.0003622,70.0017,65.1236,267.2384,43.7618,-0.00069695,-0.00083331,0.0,0 STARLINK-5882,1 55936U 23037Y   23118.00001157 -.00083331  00000-0 -69695-3 0  9990,2 55936  70.0017  65.1236 0003622 267.2384  43.7618 15.69963819  7006,6737.138,91.722,361.443,356.562,0.0
55936.0,STARLINK-5882,PAYLOAD,2023-04-28 06:19:31,15.6991982,0.0003292,70.0016,64.3842,267.0324,93.0495,-3.7016e-05,-4.66e-05,0.0,0 STARLINK-5882,1 55936U 23037Y   23118.26356467 -.00004660  00000-0 -37016-4 0  9996,2 55936  70.0016  64.3842 0003292 267.0324  93.0495 15.69919820  7042,6737.263,91.724,361.346,356.91,0.0
55936.0,STARLINK-5882,PAYLOAD,2023-04-29 03:44:03,15.69934531,0.0003457,70.0013,61.876,268.727,91.3529,6.0268e-05,7.043e-05,0.0,0 STARLINK-5882,1 55936U 23037Y   23119.15559780  .00007043  00000-0  60268-4 0  9999,2 55936  70.0013  61.8760 0003457 268.7270  91.3529 15.69934531  7181,6737.221,91.724,361.415,356.757,0.0
55936.0,STARLINK-5882,PAYLOAD,2023-04-29 06:47:33,15.69930981,0.000347,70.0014,61.52,263.3983,96.6818,5.0306e-05,5.842e-05,0.0,0 STARLINK-5882,1 55936U 23037Y   23119.28303181  .00005842  00000-0  50306-4 0  9992,2 55936  70.0014  61.5200 0003470 263.3983  96.6818 15.69930981  6863,6737.231,91.724,361.434,356.759,0.0
55936.0,STARLINK-5882,PAYLOAD,2023-04-29 23:36:50,15.69930521,0.0003258,70.0019,59.549,259.5401,100.5428,2.9951e-05,3.391e-05,0.0,0 STARLINK-5882,1 55936U 23037Y   23119.98391476  .00003391  00000-0  29951-4 0  9992,2 55936  70.0019  59.5490 0003258 259.5401 100.5428 15.69930521  7315,6737.233,91.724,361.293,356.903,0.0
55936.0,STARLINK-5882,PAYLOAD,2023-04-30 07:15:36,15.69927121,0.0003136,70.0033,58.6538,268.042,92.0417,3.061e-05,3.47e-05,0.0,0 STARLINK-5882,1 55936U 23037Y   23120.30250114  .00003470  00000-0  30610-4 0  9995,2 55936  70.0033  58.6538 0003136 268.0420  92.0417 15.69927121  7365,6737.243,91.724,361.22,356.995,0.0
55936.0,STARLINK-5882,PAYLOAD,2023-04-30 21:01:22,15.69915751,0.0003478,70.001,57.039,268.9699,91.1098,-7.7847e-06,-1.148e-05,0.0,0 STARLINK-5882,1 55936U 23037Y   23120.87595715 -.00001148  00000-0 -77847-5 0  9992,2 55936  70.0010  57.0390 0003478 268.9699  91.1098 15.69915751  7456,6737.275,91.725,361.483,356.797,0.0
55936.0,STARLINK-5882,PAYLOAD,2023-05-01 04:40:07,15.69928304,0.0003031,70.0024,56.1455,246.2644,113.8234,2.7464e-05,3.091e-05,0.0,0 STARLINK-5882,1 55936U 23037Y   23121.19453697  .00003091  00000-0  27464-4 0  9996,2 55936  70.0024  56.1455 0003031 246.2644 113.8234 15.69928304  7505,6737.239,91.724,361.146,357.062,0.0
55936.0,STARLINK-5882,PAYLOAD,2023-05-01 21:29:24,15.69929136,0.000314,70.0016,54.1709,255.048,105.0368,2.9534e-05,3.341e-05,0.0,0 STARLINK-5882,1 55936U 23037Y   23121.89541938  .00003341  00000-0  29534-4 0  9997,2 55936  70.0016  54.1709 0003140 255.0480 105.0368 15.69929136  7272,6737.237,91.724,361.217,356.986,0.0
55936.0,STARLINK-5882,PAYLOAD,2023-05-01 23:01:09,15.69924238,0.0003269,70.0023,53.9934,263.2926,96.7898,1.3768e-05,1.443e-05,0.0,0 STARLINK-5882,1 55936U 23037Y   23121.95913712  .00001443  00000-0  13768-4 0  9990,2 55936  70.0023  53.9934 0003269 263.2926  96.7898 15.69924238  7626,6737.251,91.724,361.318,356.913,0.0
55936.0,STARLINK-5882,PAYLOAD,2023-05-02 12:46:50,15.69965907,0.0003735,70.0018,52.3804,267.6681,92.4087,-2.5619e-06,-5.22e-06,0.0,0 STARLINK-5882,1 55936U 23037Y   23122.53252524 -.00000522  00000-0 -25619-5 0  9990,2 55936  70.0018  52.3804 0003735 267.6681  92.4087 15.69965907  7714,6737.132,91.722,361.513,356.48,0.0
55936.0,STARLINK-5882,PAYLOAD,2023-05-02 18:53:50,15.69948891,0.0003546,70.0022,51.6641,269.9804,90.0985,-6.6933e-05,-8.262e-05,0.0,0 STARLINK-5882,1 55936U 23037Y   23122.78739084 -.00008262  00000-0 -66933-4 0  9990,2 55936  70.0022  51.6641 0003546 269.9804  90.0985 15.69948891  7750,6737.18,91.723,361.434,356.656,0.0
55936.0,STARLINK-5882,PAYLOAD,2023-05-02 20:25:41,15.69919689,0.0003288,70.0023,51.4857,260.9315,99.1509,8.2696e-06,7.82e-06,0.0,0 STARLINK-5882,1 55936U 23037Y   23122.85117439  .00000782  00000-0  82696-5 0  9994,2 55936  70.0023  51.4857 0003288 260.9315  99.1509 15.69919689  7428,6737.264,91.724,361.344,356.914,0.0
